{"type": "FeatureCollection", "features": [{"type": "Feature", "properties": {"norad_id": 28890, "name": "BEIJING 1", "group": "dmc", "lat": 23.930722950509463, "lon": 125.3179928101468, "alt_km": 678.5628108878664, "timestamp": "2025-12-27T11:23:19.544225+00:00", "meta": {"OBJECT_NAME": "BEIJING 1", "OBJECT_ID": "2005-043A", "EPOCH": "2025-12-27T04:42:52.168896", "MEAN_MOTION": 14.63378777, "ECCENTRICITY": 0.0015878, "INCLINATION": 98.2663, "RA_OF_ASC_NODE": 128.7384, "ARG_OF_PERICENTER": 98.8776, "MEAN_ANOMALY": 261.4224, "EPHEMERIS_TYPE": 0, "CLASSIFICATION_TYPE": "U", "NORAD_CAT_ID": 28890, "ELEMENT_SET_NO": 999, "REV_AT_EPOCH": 7549, "BSTAR": 7.3159e-05, "MEAN_MOTION_DOT": 3.3e-06, "MEAN_MOTION_DDOT": 0}, "tle": {"line1": "1 28890U 05043A   25361.19643714  .00000330  00000+0  73159-4 0  9995", "line2": "2 28890  98.2663 128.7384 0015878  98.8776 261.4224 14.63378777 75499"}}, "geometry": {"type": "Point", "coordinates": [125.3179928101468, 23.930722950509463]}}, {"type": "Feature", "properties": {"norad_id": 33320, "name": "HUANJING 1A (HJ-1A)", "group": "dmc", "lat": 32.58238455784154, "lon": -15.77260827689938, "alt_km": 607.2842493933977, "timestamp": "2025-12-27T11:23:19.544248+00:00", "meta": {"OBJECT_NAME": "HUANJING 1A (HJ-1A)", "OBJECT_ID": "2008-041A", "EPOCH": "2025-12-27T04:45:57.437280", "MEAN_MOTION": 14.83441358, "ECCENTRICITY": 0.0018997, "INCLINATION": 97.6555, "RA_OF_ASC_NODE": 348.8942, "ARG_OF_PERICENTER": 348.1535, "MEAN_ANOMALY": 11.9229, "EPHEMERIS_TYPE": 0, "CLASSIFICATION_TYPE": "U", "NORAD_CAT_ID": 33320, "ELEMENT_SET_NO": 999, "REV_AT_EPOCH": 93290, "BSTAR": 0.00029346, "MEAN_MOTION_DOT": 2.366e-05, "MEAN_MOTION_DDOT": 0}, "tle": {"line1": "1 33320U 08041A   25361.19858145  .00002366  00000+0  29346-3 0  9995", "line2": "2 33320  97.6555 348.8942 0018997 348.1535  11.9229 14.83441358932909"}}, "geometry": {"type": "Point", "coordinates": [-15.77260827689938, 32.58238455784154]}}, {"type": "Feature", "properties": {"norad_id": 33321, "name": "HUANJING 1B (HJ-1B)", "group": "dmc", "lat": -42.90111014562554, "lon": 165.6499689144286, "alt_km": 652.5002148218919, "timestamp": "2025-12-27T11:23:19.544262+00:00", "meta": {"OBJECT_NAME": "HUANJING 1B (HJ-1B)", "OBJECT_ID": "2008-041B", "EPOCH": "2025-12-27T05:31:36.687936", "MEAN_MOTION": 14.82861886, "ECCENTRICITY": 0.0037639, "INCLINATION": 97.6413, "RA_OF_ASC_NODE": 352.5834, "ARG_OF_PERICENTER": 29.8017, "MEAN_ANOMALY": 330.533, "EPHEMERIS_TYPE": 0, "CLASSIFICATION_TYPE": "U", "NORAD_CAT_ID": 33321, "ELEMENT_SET_NO": 999, "REV_AT_EPOCH": 93292, "BSTAR": 0.00023484, "MEAN_MOTION_DOT": 1.874e-05, "MEAN_MOTION_DDOT": 0}, "tle": {"line1": "1 33321U 08041B   25361.23028574  .00001874  00000+0  23484-3 0  9996", "line2": "2 33321  97.6413 352.5834 0037639  29.8017 330.5330 14.82861886932923"}}, "geometry": {"type": "Point", "coordinates": [165.6499689144286, -42.90111014562554]}}, {"type": "Feature", "properties": {"norad_id": 33446, "name": "YAOGAN-4", "group": "dmc", "lat": 51.2020783266005, "lon": 121.40184827992178, "alt_km": 623.2578324129263, "timestamp": "2025-12-27T11:23:19.544274+00:00", "meta": {"OBJECT_NAME": "YAOGAN-4", "OBJECT_ID": "2008-061A", "EPOCH": "2025-12-27T01:05:39.962688", "MEAN_MOTION": 14.82725311, "ECCENTRICITY": 0.001296, "INCLINATION": 97.9199, "RA_OF_ASC_NODE": 291.0058, "ARG_OF_PERICENTER": 272.4359, "MEAN_ANOMALY": 87.537, "EPHEMERIS_TYPE": 0, "CLASSIFICATION_TYPE": "U", "NORAD_CAT_ID": 33446, "ELEMENT_SET_NO": 999, "REV_AT_EPOCH": 92015, "BSTAR": 0.00021581, "MEAN_MOTION_DOT": 1.691e-05, "MEAN_MOTION_DDOT": 0}, "tle": {"line1": "1 33446U 08061A   25361.04560142  .00001691  00000+0  21581-3 0  9990", "line2": "2 33446  97.9199 291.0058 0012960 272.4359  87.5370 14.82725311920152"}}, "geometry": {"type": "Point", "coordinates": [121.40184827992178, 51.2020783266005]}}, {"type": "Feature", "properties": {"norad_id": 35681, "name": "DEIMOS-1", "group": "dmc", "lat": -27.557077784196352, "lon": -22.66428884044634, "alt_km": 652.5092579459279, "timestamp": "2025-12-27T11:23:19.544285+00:00", "meta": {"OBJECT_NAME": "DEIMOS-1", "OBJECT_ID": "2009-041A", "EPOCH": "2025-12-27T03:56:14.999136", "MEAN_MOTION": 14.74975927, "ECCENTRICITY": 0.0002397, "INCLINATION": 97.7159, "RA_OF_ASC_NODE": 161.0968, "ARG_OF_PERICENTER": 57.7741, "MEAN_ANOMALY": 302.3701, "EPHEMERIS_TYPE": 0, "CLASSIFICATION_TYPE": "U", "NORAD_CAT_ID": 35681, "ELEMENT_SET_NO": 999, "REV_AT_EPOCH": 88152, "BSTAR": 0.00018773, "MEAN_MOTION_DOT": 1.215e-05, "MEAN_MOTION_DDOT": 0}, "tle": {"line1": "1 35681U 09041A   25361.16406249  .00001215  00000+0  18773-3 0  9993", "line2": "2 35681  97.7159 161.0968 0002397  57.7741 302.3701 14.74975927881521"}}, "geometry": {"type": "Point", "coordinates": [-22.66428884044634, -27.557077784196352]}}, {"type": "Feature", "properties": {"norad_id": 35683, "name": "UK-DMC 2", "group": "dmc", "lat": -76.22832561750408, "lon": -78.33064514930196, "alt_km": 651.5054052053438, "timestamp": "2025-12-27T11:23:19.544297+00:00", "meta": {"OBJECT_NAME": "UK-DMC 2", "OBJECT_ID": "2009-041C", "EPOCH": "2025-12-27T05:20:17.185632", "MEAN_MOTION": 14.75653835, "ECCENTRICITY": 0.0001605, "INCLINATION": 97.8573, "RA_OF_ASC_NODE": 135.7172, "ARG_OF_PERICENTER": 92.3547, "MEAN_ANOMALY": 267.7846, "EPHEMERIS_TYPE": 0, "CLASSIFICATION_TYPE": "U", "NORAD_CAT_ID": 35683, "ELEMENT_SET_NO": 999, "REV_AT_EPOCH": 88120, "BSTAR": 0.0002235, "MEAN_MOTION_DOT": 1.477e-05, "MEAN_MOTION_DDOT": 0}, "tle": {"line1": "1 35683U 09041C   25361.22242113  .00001477  00000+0  22350-3 0  9996", "line2": "2 35683  97.8573 135.7172 0001605  92.3547 267.7846 14.75653835881200"}}, "geometry": {"type": "Point", "coordinates": [-78.33064514930196, -76.22832561750408]}}, {"type": "Feature", "properties": {"norad_id": 40715, "name": "DMC3-FM1", "group": "dmc", "lat": 71.13193589783327, "lon": 71.34615183821292, "alt_km": 607.7668316097834, "timestamp": "2025-12-27T11:23:19.544307+00:00", "meta": {"OBJECT_NAME": "DMC3-FM1", "OBJECT_ID": "2015-032A", "EPOCH": "2025-12-27T04:26:26.655072", "MEAN_MOTION": 14.85464677, "ECCENTRICITY": 0.0004081, "INCLINATION": 97.6677, "RA_OF_ASC_NODE": 227.8507, "ARG_OF_PERICENTER": 259.4522, "MEAN_ANOMALY": 100.6234, "EPHEMERIS_TYPE": 0, "CLASSIFICATION_TYPE": "U", "NORAD_CAT_ID": 40715, "ELEMENT_SET_NO": 999, "REV_AT_EPOCH": 56437, "BSTAR": 0.00012668, "MEAN_MOTION_DOT": 1.041e-05, "MEAN_MOTION_DDOT": 0}, "tle": {"line1": "1 40715U 15032A   25361.18503073  .00001041  00000+0  12668-3 0  9993", "line2": "2 40715  97.6677 227.8507 0004081 259.4522 100.6234 14.85464677564377"}}, "geometry": {"type": "Point", "coordinates": [71.34615183821292, 71.13193589783327]}}, {"type": "Feature", "properties": {"norad_id": 40716, "name": "DMC3-FM2", "group": "dmc", "lat": -12.793945306034198, "lon": -128.66140404210765, "alt_km": 616.1309306085741, "timestamp": "2025-12-27T11:23:19.544317+00:00", "meta": {"OBJECT_NAME": "DMC3-FM2", "OBJECT_ID": "2015-032B", "EPOCH": "2025-12-27T04:58:48.584928", "MEAN_MOTION": 14.85469743, "ECCENTRICITY": 0.0004505, "INCLINATION": 97.6737, "RA_OF_ASC_NODE": 229.3267, "ARG_OF_PERICENTER": 267.4978, "MEAN_ANOMALY": 92.5722, "EPHEMERIS_TYPE": 0, "CLASSIFICATION_TYPE": "U", "NORAD_CAT_ID": 40716, "ELEMENT_SET_NO": 999, "REV_AT_EPOCH": 56437, "BSTAR": 0.00019743, "MEAN_MOTION_DOT": 1.652e-05, "MEAN_MOTION_DDOT": 0}, "tle": {"line1": "1 40716U 15032B   25361.20750677  .00001652  00000+0  19743-3 0  9990", "line2": "2 40716  97.6737 229.3267 0004505 267.4978  92.5722 14.85469743564370"}}, "geometry": {"type": "Point", "coordinates": [-128.66140404210765, -12.793945306034198]}}, {"type": "Feature", "properties": {"norad_id": 40717, "name": "DMC3-FM3", "group": "dmc", "lat": -50.3058547287589, "lon": 41.87169481669073, "alt_km": 616.9403180898917, "timestamp": "2025-12-27T11:23:19.544328+00:00", "meta": {"OBJECT_NAME": "DMC3-FM3", "OBJECT_ID": "2015-032C", "EPOCH": "2025-12-27T05:30:08.254944", "MEAN_MOTION": 14.85451351, "ECCENTRICITY": 0.0003881, "INCLINATION": 97.6792, "RA_OF_ASC_NODE": 230.9903, "ARG_OF_PERICENTER": 268.9038, "MEAN_ANOMALY": 91.1733, "EPHEMERIS_TYPE": 0, "CLASSIFICATION_TYPE": "U", "NORAD_CAT_ID": 40717, "ELEMENT_SET_NO": 999, "REV_AT_EPOCH": 56438, "BSTAR": 6.7931e-05, "MEAN_MOTION_DOT": 5.34e-06, "MEAN_MOTION_DDOT": 0}, "tle": {"line1": "1 40717U 15032C   25361.22926221  .00000534  00000+0  67931-4 0  9994", "line2": "2 40717  97.6792 230.9903 0003881 268.9038  91.1733 14.85451351564380"}}, "geometry": {"type": "Point", "coordinates": [41.87169481669073, -50.3058547287589]}}]}